STARLINK-32745          
1 62755U 25014W   26068.28525276  .00028520  00000+0  10420-2 0  9991
2 62755  43.0012 156.8377 0001373 283.0412  77.0286 15.27575633 63191
AL MUNTHER              
1 63240U 25052AG  26068.64540749  .00017933  00000+0  65015-3 0  9992
2 63240  97.4001 323.9152 0008027 130.7043 229.4895 15.28381521 54798
